NORAD_CAT_ID,OBJECT_NAME,OBJECT_TYPE,EPOCH,MEAN_MOTION,ECCENTRICITY,INCLINATION,RA_OF_ASC_NODE,ARG_OF_PERICENTER,MEAN_ANOMALY,BSTAR,MEAN_MOTION_DOT,MEAN_MOTION_DDOT,TLE_LINE0,TLE_LINE1,TLE_LINE2,SEMIMAJOR_AXIS,PERIOD,APOGEE,PERIGEE,DECAYED
51970.0,STARLINK-3677,PAYLOAD,2022-07-18 14:00:01,15.08812612,0.0001933,53.216,240.1824,46.3425,261.9257,0.0028291,0.00044991,0.0,0 STARLINK-3677,1 51970U 22025Q   22199.58334491  .00044991  00000-0  28291-2 0  9994,2 51970  53.2160 240.1824 0001933  46.3425 261.9257 15.08812612  1302,6917.964,95.439,541.1659999999998,538.492,0.0
51970.0,STARLINK-3677,PAYLOAD,2022-07-18 22:00:00,15.08820255,0.0001767,53.2165,238.6849,51.8027,268.0545,0.0020099,0.00031827,0.0,0 STARLINK-3677,1 51970U 22025Q   22199.91667824  .00031827  00000-0  20099-2 0  9992,2 51970  53.2165 238.6849 0001767  51.8027 268.0545 15.08820255  1300,6917.941,95.439,541.028,538.5830000000002,0.0
51970.0,STARLINK-3677,PAYLOAD,2022-07-19 06:00:00,15.08858777,0.0001842,53.2166,237.1885,51.8444,279.5938,-0.0014667,-0.00023567,0.0,0 STARLINK-3677,1 51970U 22025Q   22200.25001157 -.00023567  00000-0 -14667-2 0  9991,2 51970  53.2166 237.1885 0001842  51.8444 279.5938 15.08858777 21598,6917.823,95.436,540.962,538.414,0.0
51970.0,STARLINK-3677,PAYLOAD,2022-07-19 14:00:01,15.08831303,0.0001948,53.2164,235.6931,46.6476,296.3984,0.0023397,0.00037136,0.0,0 STARLINK-3677,1 51970U 22025Q   22200.58334491  .00037136  00000-0  23397-2 0  9992,2 51970  53.2164 235.6931 0001948  46.6476 296.3984 15.08831303  1306,6917.906999999997,95.438,541.12,538.424,0.0
51970.0,STARLINK-3677,PAYLOAD,2022-07-19 22:00:00,15.08852878,0.0001791,53.2171,234.2004,50.1705,304.4789,-0.0015549,-0.00024958,0.0,0 STARLINK-3677,1 51970U 22025Q   22200.91667824 -.00024958  00000-0 -15549-2 0  9998,2 51970  53.2171 234.2004 0001791  50.1705 304.4789 15.08852878  1305,6917.840999999999,95.437,540.945,538.467,0.0
51970.0,STARLINK-3677,PAYLOAD,2022-07-20 06:00:00,15.08881331,0.0001786999999999,53.2168,232.6994,50.6185,315.6468,-0.004317,-0.00068419,0.0,0 STARLINK-3677,1 51970U 22025Q   22201.25001157 -.00068419  00000-0 -43170-2 0  9998,2 51970  53.2168 232.6994 0001787  50.6185 315.6468 15.08881331 21747,6917.754,95.435,540.855,538.383,0.0
51970.0,STARLINK-3677,PAYLOAD,2022-07-20 14:00:01,15.08831877,0.0001831,53.2164,231.2038,43.8687,334.0108,0.0011419,0.00017928,0.0,0 STARLINK-3677,1 51970U 22025Q   22201.58334491  .00017928  00000-0  11419-2 0  9992,2 51970  53.2164 231.2038 0001831  43.8687 334.0108 15.08831877  1304,6917.905,95.438,541.0369999999998,538.504,0.0
51970.0,STARLINK-3677,PAYLOAD,2022-07-20 22:00:01,15.08808251,0.0001592,53.2165,229.7057,49.5632,339.9821,0.0012082,0.00018976,0.0,0 STARLINK-3677,1 51970U 22025Q   22201.91668981  .00018976  00000-0  12082-2 0  9994,2 51970  53.2165 229.7057 0001592  49.5632 339.9821 15.08808251 21842,6917.977,95.44,540.944,538.741,0.0
51970.0,STARLINK-3677,PAYLOAD,2022-07-21 14:00:01,15.08811826,0.0001781999999999,53.216,226.7148,42.79,9.8892,0.0012665999999999,0.00019912,0.0,0 STARLINK-3677,1 51970U 22025Q   22202.58335648  .00019912  00000-0  12666-2 0  9998,2 51970  53.2160 226.7148 0001782  42.7900   9.8892 15.08811826  1301,6917.967,95.439,541.064,538.599,0.0
51970.0,STARLINK-3677,PAYLOAD,2022-07-21 22:00:00,15.08797496,0.0001595,53.2159,225.2169,49.8689,14.3241,0.0026536,0.00042148,0.0,0 STARLINK-3677,1 51970U 22025Q   22202.91667824  .00042148  00000-0  26536-2 0  9997,2 51970  53.2159 225.2169 0001595  49.8689  14.3241 15.08797496  1305,6918.01,95.44,540.979,538.7719999999998,0.0
51970.0,STARLINK-3677,PAYLOAD,2022-07-22 06:00:00,15.08839237,0.0001733,53.2159,223.7218,48.6503,27.1047,-0.001918,-0.00030683,0.0,0 STARLINK-3677,1 51970U 22025Q   22203.25001157 -.00030683  00000-0 -19180-2 0  9996,2 51970  53.2159 223.7218 0001733  48.6503  27.1047 15.08839237  1305,6917.8830000000025,95.438,540.947,538.549,0.0
51970.0,STARLINK-3677,PAYLOAD,2022-07-22 12:00:00,15.08805263,0.000183,53.2157,222.6003,45.0192,309.4281,0.0026453,0.00042023,0.0,0 STARLINK-3677,1 51970U 22025Q   22203.50001157  .00042023  00000-0  26453-2 0  9994,2 51970  53.2157 222.6003 0001830  45.0192 309.4281 15.08805263 22082,6917.986999999999,95.44,541.118,538.586,0.0
51970.0,STARLINK-3677,PAYLOAD,2022-07-22 22:00:00,15.08806967,0.0001658,53.2154,220.7279,50.7389,48.1841,0.0026479,0.00042067,0.0,0 STARLINK-3677,1 51970U 22025Q   22203.91667824  .00042067  00000-0  26479-2 0  9994,2 51970  53.2154 220.7279 0001658  50.7389  48.1841 15.08806967  1305,6917.981,95.44,540.993,538.6990000000002,0.0
51970.0,STARLINK-3677,PAYLOAD,2022-07-23 08:00:01,15.08831776,0.0001878,53.2153,218.8592,47.6263,155.7702,-0.00038234,-6.367e-05,0.0,0 STARLINK-3677,1 51970U 22025Q   22204.33334491 -.00006367  00000-0 -38234-3 0  9990,2 51970  53.2153 218.8592 0001878  47.6263 155.7702 15.08831776 22210,6917.906,95.438,541.07,538.471,0.0
51970.0,STARLINK-3677,PAYLOAD,2022-07-23 14:00:01,15.08831788,0.0001898,53.215,217.7368,44.7141,77.4281,0.00027977,4.166e-05,0.0,0 STARLINK-3677,1 51970U 22025Q   22204.58335648  .00004166  00000-0  27977-3 0  9997,2 51970  53.2150 217.7368 0001898  44.7141  77.4281 15.08831788  1303,6917.905,95.438,541.0840000000002,538.457,0.0
51970.0,STARLINK-3677,PAYLOAD,2022-07-23 22:00:00,15.08814988,0.0001754,53.215,216.2388,50.8683,82.8073,0.0025109999999999,0.00039874,0.0,0 STARLINK-3677,1 51970U 22025Q   22204.91667824  .00039874  00000-0  25110-2 0  9998,2 51970  53.2150 216.2388 0001754  50.8683  82.8073 15.08814988  1301,6917.956999999999,95.439,541.035,538.6080000000002,0.0
51970.0,STARLINK-3677,PAYLOAD,2022-07-24 14:00:01,15.08844522,0.0001996999999999,53.215,213.2476,45.5532,111.2969,-0.00019157,-3.336e-05,0.0,0 STARLINK-3677,1 51970U 22025Q   22205.58334491 -.00003336  00000-0 -19157-3 0  9994,2 51970  53.2150 213.2476 0001997  45.5532 111.2969 15.08844522  1307,6917.8669999999975,95.437,541.113,538.35,0.0
51970.0,STARLINK-3677,PAYLOAD,2022-07-24 22:00:00,15.08823393,0.0001863,53.2151,211.7496,51.2634,117.1901,0.0023339,0.00037035,0.0,0 STARLINK-3677,1 51970U 22025Q   22205.91667824  .00037035  00000-0  23339-2 0  9997,2 51970  53.2151 211.7496 0001863  51.2634 117.1901 15.08823393  1306,6917.931,95.439,541.085,538.507,0.0
51970.0,STARLINK-3677,PAYLOAD,2022-07-25 14:00:01,15.08856043,0.0002086999999999,53.2152,208.7582,46.6898,144.955,-0.00081059,-0.00013172,0.0,0 STARLINK-3677,1 51970U 22025Q   22206.58334491 -.00013172  00000-0 -81059-3 0  9994,2 51970  53.2152 208.7582 0002087  46.6898 144.9550 15.08856043 22554,6917.831,95.437,541.14,538.253,0.0
51970.0,STARLINK-3677,PAYLOAD,2022-07-25 22:00:00,15.08831894,0.000196,53.2154,207.2603,52.3005,150.9569,0.002191,0.00034747,0.0,0 STARLINK-3677,1 51970U 22025Q   22206.91667824  .00034747  00000-0  21910-2 0  9998,2 51970  53.2154 207.2603 0001960  52.3005 150.9569 15.08831894  1301,6917.905,95.438,541.126,538.414,0.0
51970.0,STARLINK-3677,PAYLOAD,2022-07-26 14:00:01,15.08866943,0.000214,53.2154,204.2688,47.9977,178.4685,-0.0014083,-0.00022649,0.0,0 STARLINK-3677,1 51970U 22025Q   22207.58334491 -.00022649  00000-0 -14083-2 0  9996,2 51970  53.2154 204.2688 0002140  47.9977 178.4685 15.08866943  1307,6917.7980000000025,95.436,541.143,538.183,0.0
51970.0,STARLINK-3677,PAYLOAD,2022-07-26 22:00:00,15.08851969,0.000198,53.2157,202.7709,53.1664,184.9199,-0.00016655,-2.939e-05,0.0,0 STARLINK-3677,1 51970U 22025Q   22207.91667824 -.00002939  00000-0 -16655-3 0  9990,2 51970  53.2157 202.7709 0001980  53.1664 184.9199 15.08851969  1304,6917.844,95.437,541.0790000000002,538.339,0.0
51970.0,STARLINK-3677,PAYLOAD,2022-07-27 14:00:01,15.08849927,0.0002075,53.2156,199.7794,47.5268,213.7556,-0.0018786999999999,-0.00030072,0.0,0 STARLINK-3677,1 51970U 22025Q   22208.58334491 -.00030072  00000-0 -18787-2 0  9991,2 51970  53.2156 199.7794 0002075  47.5268 213.7556 15.08849927  1304,6917.85,95.437,541.151,538.28,0.0
51970.0,STARLINK-3677,PAYLOAD,2022-07-27 16:00:00,15.08848803,0.0002035,53.2157,199.4048,49.1983,304.9832,-0.0020475,-0.00032735,0.0,0 STARLINK-3677,1 51970U 22025Q   22208.66667824 -.00032735  00000-0 -20475-2 0  9994,2 51970  53.2157 199.4048 0002035  49.1983 304.9832 15.08848803 22868,6917.853,95.437,541.126,538.311,0.0
51970.0,STARLINK-3677,PAYLOAD,2022-07-27 22:00:00,15.08821143,0.000195,53.2158,198.2817,53.5437,219.3351,0.0021406999999999,0.00033928,0.0,0 STARLINK-3677,1 51970U 22025Q   22208.91667824  .00033928  00000-0  21407-2 0  9991,2 51970  53.2158 198.2817 0001950  53.5437 219.3351 15.08821143  1307,6917.938,95.439,541.1519999999998,538.4540000000002,0.0
51970.0,STARLINK-3677,PAYLOAD,2022-07-28 08:00:01,15.08828207,0.0002154999999999,53.2159,196.4133,49.2587,328.1124,0.0010849,0.00017015,0.0,0 STARLINK-3677,1 51970U 22025Q   22209.33334491  .00017015  00000-0  10849-2 0  9996,2 51970  53.2159 196.4133 0002155  49.2587 328.1124 15.08828207 22965,6917.916,95.438,541.2719999999998,538.2909999999998,0.0
51970.0,STARLINK-3677,PAYLOAD,2022-07-28 14:00:01,15.08857286,0.0002085,53.2156,195.2902,49.3257,246.7297,-0.0022218,-0.00035492,0.0,0 STARLINK-3677,1 51970U 22025Q   22209.58334491 -.00035492  00000-0 -22218-2 0  9997,2 51970  53.2156 195.2902 0002085  49.3257 246.7297 15.08857286  1300,6917.828,95.436,541.135,538.25,0.0
51970.0,STARLINK-3677,PAYLOAD,2022-07-28 22:00:00,15.08829244,0.0001983,53.2158,193.7927,55.7016,251.957,0.0020179,0.00031964,0.0,0 STARLINK-3677,1 51970U 22025Q   22209.91667824  .00031964  00000-0  20179-2 0  9995,2 51970  53.2158 193.7927 0001983  55.7016 251.9570 15.08829244  1307,6917.913000000001,95.438,541.15,538.406,0.0
51970.0,STARLINK-3677,PAYLOAD,2022-07-29 06:00:00,15.08844432,0.0002165,53.2158,192.2981,51.6858,267.5715,-0.00044482,-7.362e-05,0.0,0 STARLINK-3677,1 51970U 22025Q   22210.25001157 -.00007362  00000-0 -44482-3 0  9996,2 51970  53.2158 192.2981 0002165  51.6858 267.5715 15.08844432 23105,6917.8669999999975,95.437,541.23,538.234,0.0
